YAOGAN-35 04A           
1 53522U 22100A   22254.85609988  .00010739  00000+0  44677-3 0  9990
2 53522  35.0017  62.3478 0006181 114.0010 246.1356 15.22978711  3539
CZ-2D R/B               
1 53523U 22100B   22254.84657991  .00017662  00000+0  71385-3 0  9995
2 53523  35.0011  62.2680 0006925 110.9848 249.1612 15.23866811  3534
YAOGAN-35 04B           
1 53524U 22100C   22254.85248028  .00010474  00000+0  43456-3 0  9996
2 53524  35.0002  62.3160 0004673 109.3871 250.7349 15.23080437  3486
CZ-2D DEB               
1 53525U 22100D   22255.10339818  .00019382  00000+0  77405-3 0  9992
2 53525  35.0014  60.5749 0007102 124.8054 235.3337 15.24251743  3520
YAOGAN-35 04C           
1 53526U 22100E   22254.85546529  .00007882  00000+0  32928-3 0  9996
2 53526  35.0010  62.3416 0004736 121.6123 238.5056 15.22902729  3483
STARLINK-4511           
1 53527U 22101A   22255.16667824 -.01116313  00000+0 -18318-1 0  9993
2 53527  53.2176  39.4960 0001661  40.4457 169.0729 15.54651234  3695
STARLINK-4503           
1 53528U 22101B   22255.16667824 -.01116372  00000+0 -18323-1 0  9995
2 53528  53.2176  39.4864 0001830  34.1996 174.5268 15.54643935  3693
STARLINK-4478           
1 53529U 22101C   22255.16667824 -.01116378  00000+0 -18314-1 0  9992
2 53529  53.2176  39.5065 0001697  38.9334 171.3773 15.54658580  3695
STARLINK-4482           
1 53530U 22101D   22255.50001157 -.01116654  00000+0 -18857-1 0  9992
2 53530  53.2177  37.9189 0001940  26.1473 251.9240 15.53870640  3743
STARLINK-4487           
1 53531U 22101E   22255.16667824 -.01116615  00000+0 -18313-1 0  9998
2 53531  53.2176  39.5168 0001738  37.3052 173.7975 15.54666043  3691
STARLINK-4483           
1 53532U 22101F   22255.50001157 -.01116775  00000+0 -18855-1 0  9996
2 53532  53.2177  38.0191 0001586  39.8275 239.0418 15.53879893  3740
STARLINK-4493           
1 53533U 22101G   22255.50001157 -.01116935  00000+0 -18852-1 0  9992
2 53533  53.2177  38.0262 0001738  33.8805 245.7891 15.53887214  3747
STARLINK-4488           
1 53534U 22101H   22255.50001157 -.01117115  00000+0 -18836-1 0  9996
2 53534  53.2178  38.0600 0001595  38.9358 243.9344 15.53916416  3745
STARLINK-4138           
1 53535U 22101J   22255.16667824 -.01116628  00000+0 -18288-1 0  9997
2 53535  53.2176  39.6392 0001653  40.5349 174.5248 15.54704085  3697
STARLINK-4053           
1 53536U 22101K   22255.50001157 -.00006430  00000+0 -41395-4 0  9993
2 53536  53.2173  37.4075 0002059  38.0109 164.8665 15.73211617  3753
STARLINK-4120           
1 53537U 22101L   22255.50001157 -.01117311  00000+0 -18853-1 0  9996
2 53537  53.2178  38.0280 0001890  29.1571 251.3129 15.53894555  3742
STARLINK-4118           
1 53538U 22101M   22255.16667824 -.00010156  00000+0 -67991-4 0  9996
2 53538  53.2168  39.0542 0001806  31.6940  82.8655 15.73211331  3703
STARLINK-4123           
1 53539U 22101N   22255.16667824 -.01116781  00000+0 -18285-1 0  9998
2 53539  53.2176  39.6496 0001788  35.3405 180.5107 15.54711449  3693
STARLINK-4486           
1 53540U 22101P   22255.16667824 -.00039505  00000+0 -27787-3 0  9996
2 53540  53.2173  39.0542 0001854  31.1876  84.5361 15.73240271  3706
STARLINK-4485           
1 53541U 22101Q   22255.50001157 -.01117324  00000+0 -18834-1 0  9994
2 53541  53.2178  38.0707 0001722  33.9679 249.7022 15.53923830  3749
STARLINK-4489           
1 53542U 22101R   22254.91667824 -.00012010  00000+0 -81187-4 0  9997
2 53542  53.2164  40.2892 0002157  25.7955 114.4867 15.73218899  1303
STARLINK-4297           
1 53543U 22101S   22255.16667824 -.00022074  00000+0 -15305-3 0  9995
2 53543  53.2170  39.0539 0001837  31.0653  84.0808 15.73231490  3709
STARLINK-4303           
1 53544U 22101T   22254.91667824  .00012936  00000+0  96453-4 0  9996
2 53544  53.2165  40.2876 0001961  24.3918 117.0364 15.73198294  1301
STARLINK-4475           
1 53545U 22101U   22255.50001157  .00015771  00000+0  11647-3 0  9995
2 53545  53.2173  37.4028 0001619  35.1219 170.1551 15.73221556  3759
STARLINK-4477           
1 53546U 22101V   22255.50001157 -.00077039  00000+0 -54745-3 0  9999
2 53546  53.2178  36.3154 0002276  19.1096 353.8656 15.73284321  3764
STARLINK-4474           
1 53547U 22101W   22255.16667824  .00030100  00000+0  21827-3 0  9992
2 53547  53.2172  39.0504 0001708  29.4255  88.1301 15.73182634  3701
STARLINK-4513           
1 53548U 22101X   22255.16667824 -.00024828  00000+0 -17287-3 0  9990
2 53548  53.2170  39.0441 0001851  31.1569  89.3982 15.73215884  3709
STARLINK-4516           
1 53549U 22101Y   22255.16667824 -.00064685  00000+0 -45895-3 0  9992
2 53549  53.2164  39.0447 0001749  34.0610  84.6239 15.73252273  3700
STARLINK-4518           
1 53550U 22101Z   22255.16667824 -.00010033  00000+0 -67083-4 0  9996
2 53550  53.2166  39.0417 0001842  27.9389  93.1511 15.73219191  3709
STARLINK-4514           
1 53551U 22101AA  22255.16667824 -.00022208  00000+0 -15420-3 0  9991
2 53551  53.2171  39.0465 0001995  29.7717  89.5582 15.73202045  3700
STARLINK-4495           
1 53552U 22101AB  22255.16667824 -.00055307  00000+0 -39168-3 0  9993
2 53552  53.2170  39.0399 0001972  31.5036  91.4151 15.73230712  3702
STARLINK-4501           
1 53553U 22101AC  22255.16667824  .00005219  00000+0  41575-4 0  9995
2 53553  53.2168  39.0411 0001809  27.3197  94.3864 15.73203356  3702
STARLINK-4506           
1 53554U 22101AD  22255.16667824  .00052104  00000+0  37375-3 0  9993
2 53554  53.2165  39.0356 0001705  38.5834  85.5509 15.73175287  3704
STARLINK-4504           
1 53555U 22101AE  22255.16667824  .00005942  00000+0  46738-4 0  9996
2 53555  53.2164  39.0378 0001823  29.8212  92.5126 15.73192982  3706
STARLINK-4505           
1 53556U 22101AF  22254.91667824  .00058961  00000+0  42245-3 0  9996
2 53556  53.2161  40.2715 0002029  26.9350 121.6328 15.73150152  1308
STARLINK-4502           
1 53557U 22101AG  22255.16667824  .00000893  00000+0  10784-4 0  9990
2 53557  53.2166  39.0371 0001611  29.0727  94.4308 15.73203018  3707
STARLINK-4494           
1 53558U 22101AH  22255.16667824 -.00059150  00000+0 -41947-3 0  9997
2 53558  53.2168  39.0329 0001741  32.5196  93.9642 15.73227363  3700
STARLINK-4508           
1 53559U 22101AJ  22255.16667824 -.00023628  00000+0 -16416-3 0  9992
2 53559  53.2167  39.0357 0001845  32.5530  92.0927 15.73232217  3708
STARLINK-4564           
1 53560U 22101AK  22255.16667824  .00045355  00000+0  32628-3 0  9996
2 53560  53.2164  39.0287 0001839  27.5878 100.1019 15.73166818  3707
STARLINK-4563           
1 53561U 22101AL  22255.16667824 -.00033210  00000+0 -23286-3 0  9996
2 53561  53.2165  39.0319 0001916  30.1642  95.6917 15.73225579  3705
STARLINK-4565           
1 53562U 22101AM  22255.16667824  .00002136  00000+0  19638-4 0  9995
2 53562  53.2163  39.0264 0001940  30.7663  98.0906 15.73201001  3708
STARLINK-4561           
1 53563U 22101AN  22255.16667824 -.00036897  00000+0 -25933-3 0  9993
2 53563  53.2165  39.0304 0001744  25.1921 101.8508 15.73224686  3708
STARLINK-4577           
1 53564U 22101AP  22255.16667824  .00061315  00000+0  43848-3 0  9990
2 53564  53.2161  39.0230 0001767  37.5855  92.4468 15.73179576  3708
STARLINK-4575           
1 53565U 22101AQ  22255.16667824  .00002256  00000+0  20499-4 0  9998
2 53565  53.2164  39.0271 0001755  33.6245  94.6610 15.73193807  3700
STARLINK-4576           
1 53566U 22101AR  22255.16667824  .00074048  00000+0  52885-3 0  9990
2 53566  53.2163  39.0222 0001986  34.2594  97.0212 15.73133470  3701
STARLINK-4585           
1 53567U 22101AS  22254.91667824 -.00040153  00000+0 -28275-3 0  9991
2 53567  53.2161  40.2635 0002105  35.4771 117.2665 15.73220695  1303
STARLINK-4583           
1 53568U 22101AT  22254.91667824 -.00030870  00000+0 -21595-3 0  9995
2 53568  53.2158  40.2572 0002098  24.2793 132.0378 15.73238383  1300
STARLINK-4582           
1 53569U 22101AU  22254.91667824  .00030277  00000+0  21925-3 0  9992
2 53569  53.2160  40.2610 0002005  26.5762 127.3588 15.73211589  1305
STARLINK-4550           
1 53570U 22101AV  22254.91667824  .00055219  00000+0  39581-3 0  9994
2 53570  53.2158  40.2586 0001951  30.9255 124.8241 15.73167207  1306
STARLINK-4584           
1 53571U 22101AW  22255.16667824  .00044720  00000+0  32213-3 0  9993
2 53571  53.2164  39.0197 0001886  35.5179  96.3488 15.73142950  3701
STARLINK-4555           
1 53572U 22101AX  22255.16667824 -.00029172  00000+0 -20401-3 0  9996
2 53572  53.2165  39.0149 0002092  23.5043 111.3143 15.73213391  3701
STARLINK-4547           
1 53573U 22101AY  22255.16667824  .00050818  00000+0  36475-3 0  9994
2 53573  53.2163  39.0165 0002038  31.1179 102.5635 15.73170854  3707
STARLINK-4559           
1 53574U 22101AZ  22254.91667824  .00035750  00000+0  25810-3 0  9996
2 53574  53.2162  40.2531 0002122  26.3072 132.9808 15.73195007  1300
STARLINK-4551           
1 53575U 22101BA  22254.91667824 -.00041768  00000+0 -29439-3 0  9996
2 53575  53.2160  40.2536 0002065  29.8002 127.7379 15.73218136  1305
STARLINK-4581           
1 53576U 22101BB  22255.16667824 -.00057294  00000+0 -40545-3 0  9997
2 53576  53.2160  39.0099 0002018  25.7542 110.8718 15.73262368  3700
STARLINK-4553           
1 53577U 22101BC  22254.91667824 -.00012586  00000+0 -85299-4 0  9991
2 53577  53.2158  40.2515 0002236  33.8079 124.9137 15.73219748  1301
STARLINK-4556           
1 53578U 22101BD  22255.16667824 -.00040406  00000+0 -28478-3 0  9997
2 53578  53.2163  39.0105 0002042  26.9004 110.3369 15.73203864  3709
STARLINK-4580           
1 53579U 22101BE  22254.91667824  .00025353  00000+0  18449-3 0  9999
2 53579  53.2158  40.2476 0002137  29.0684 132.0192 15.73202080  1300
FALCON 9 DEB            
1 53580U 22101BF  22251.69903974  .06630223  12236-4  58430-3 0  9999
2 53580  53.2077  52.2940 0010089 118.4804 241.7262 16.38230071  3214
